STARLINK-36325          
1 67861U 26034M   26062.58336806  .00006071  00000+0  34262-4 0  9992
2 67861  53.1589 241.8617 0001233  89.9444 226.1957 15.80882855  2887
STARLINK-36332          
1 67862U 26034N   26062.58336806  .00025360  00000+0  13162-3 0  9990
2 67862  53.1585 241.8532 0000976 106.8120 213.5879 15.80878131  2888
STARLINK-36835          
1 67863U 26034P   26062.58336806 -.00028582  00000+0 -14155-3 0  9995
2 67863  53.1588 241.8433 0000942  60.5275 264.1445 15.80902502  2883
STARLINK-36831          
1 67864U 26034Q   26062.58336806 -.00063161  00000+0 -31813-3 0  9998
2 67864  53.1587 241.8348 0000983  78.5871 250.3576 15.80918533  2887
STARLINK-36738          
1 67865U 26034R   26062.58336806 -.00060720  00000+0 -30574-3 0  9990
2 67865  53.1585 241.8257 0001215  46.5848 286.6430 15.80909067  2886
STARLINK-36780          
1 67866U 26034S   26062.58336806  .00068233  00000+0  34683-3 0  9991
2 67866  53.1578 241.8159 0000588  66.1679 271.3259 15.80853239  2881
STARLINK-36761          
1 67867U 26034T   26062.58336806 -.00157883  00000+0 -80777-3 0  9999
2 67867  53.1579 241.8068 0001051  87.5341 254.2234 15.80960222  2885
STARLINK-36762          
1 67868U 26034U   26062.58336806 -.00030164  00000+0 -14971-3 0  9995
2 67868  53.1581 241.7983 0001493  54.2570 291.8016 15.80886252  2884
STARLINK-36779          
1 67869U 26034V   26062.58336806 -.00022610  00000+0 -11118-3 0  9993
2 67869  53.1582 241.7892 0001096  88.0651 262.2370 15.80898978  2882
STARLINK-36770          
1 67870U 26034W   26062.58336806 -.00088522  00000+0 -44838-3 0  9994
2 67870  53.1584 241.7713 0001100  85.8779 272.9646 15.80929146  2886
STARLINK-36769          
1 67871U 26034X   26062.58336806 -.00126251  00000+0 -64292-3 0  9993
2 67871  53.1582 241.7804 0000732  61.7220 292.8356 15.80959746  2888
STARLINK-36786          
1 67872U 26034Y   26062.58336806  .00000911  00000+0  81447-5 0  9999
2 67872  53.1582 241.7627 0000249  92.7695 270.3780 15.80875668  2887
