CCSDS_OMM_VERS = 2.0
CREATION_DATE  = 
ORIGINATOR     = 

OBJECT_NAME    = STARLINK-36325
OBJECT_ID      = 2026-034M
CENTER_NAME    = EARTH
REF_FRAME      = TEME
TIME_SYSTEM    = UTC
MEAN_ELEMENT_THEORY = SGP/SGP4

EPOCH          = 2026-03-03T14:00:03.000384
MEAN_MOTION    = 15.80882855
ECCENTRICITY   = .0001233
INCLINATION    = 53.1589
RA_OF_ASC_NODE = 241.8617
ARG_OF_PERICENTER = 89.9444
MEAN_ANOMALY   = 226.1957

EPHEMERIS_TYPE = 0
CLASSIFICATION_TYPE = U
NORAD_CAT_ID   = 67861
ELEMENT_SET_NO = 999
REV_AT_EPOCH   = 288
BSTAR          = .34262E-4
MEAN_MOTION_DOT = .6071E-4
MEAN_MOTION_DDOT = 0

CCSDS_OMM_VERS = 2.0
CREATION_DATE  = 
ORIGINATOR     = 

OBJECT_NAME    = STARLINK-36332
OBJECT_ID      = 2026-034N
CENTER_NAME    = EARTH
REF_FRAME      = TEME
TIME_SYSTEM    = UTC
MEAN_ELEMENT_THEORY = SGP/SGP4

EPOCH          = 2026-03-03T14:00:03.000384
MEAN_MOTION    = 15.80878131
ECCENTRICITY   = .0000976
INCLINATION    = 53.1585
RA_OF_ASC_NODE = 241.8532
ARG_OF_PERICENTER = 106.8120
MEAN_ANOMALY   = 213.5879

EPHEMERIS_TYPE = 0
CLASSIFICATION_TYPE = U
NORAD_CAT_ID   = 67862
ELEMENT_SET_NO = 999
REV_AT_EPOCH   = 288
BSTAR          = .13162E-3
MEAN_MOTION_DOT = .2536E-3
MEAN_MOTION_DDOT = 0

CCSDS_OMM_VERS = 2.0
CREATION_DATE  = 
ORIGINATOR     = 

OBJECT_NAME    = STARLINK-36835
OBJECT_ID      = 2026-034P
CENTER_NAME    = EARTH
REF_FRAME      = TEME
TIME_SYSTEM    = UTC
MEAN_ELEMENT_THEORY = SGP/SGP4

EPOCH          = 2026-03-03T14:00:03.000384
MEAN_MOTION    = 15.80902502
ECCENTRICITY   = .0000942
INCLINATION    = 53.1588
RA_OF_ASC_NODE = 241.8433
ARG_OF_PERICENTER = 60.5275
MEAN_ANOMALY   = 264.1445

EPHEMERIS_TYPE = 0
CLASSIFICATION_TYPE = U
NORAD_CAT_ID   = 67863
ELEMENT_SET_NO = 999
REV_AT_EPOCH   = 288
BSTAR          = -.14155E-3
MEAN_MOTION_DOT = -.28582E-3
MEAN_MOTION_DDOT = 0

CCSDS_OMM_VERS = 2.0
CREATION_DATE  = 
ORIGINATOR     = 

OBJECT_NAME    = STARLINK-36831
OBJECT_ID      = 2026-034Q
CENTER_NAME    = EARTH
REF_FRAME      = TEME
TIME_SYSTEM    = UTC
MEAN_ELEMENT_THEORY = SGP/SGP4

EPOCH          = 2026-03-03T14:00:03.000384
MEAN_MOTION    = 15.80918533
ECCENTRICITY   = .0000983
INCLINATION    = 53.1587
RA_OF_ASC_NODE = 241.8348
ARG_OF_PERICENTER = 78.5871
MEAN_ANOMALY   = 250.3576

EPHEMERIS_TYPE = 0
CLASSIFICATION_TYPE = U
NORAD_CAT_ID   = 67864
ELEMENT_SET_NO = 999
REV_AT_EPOCH   = 288
BSTAR          = -.31813E-3
MEAN_MOTION_DOT = -.63161E-3
MEAN_MOTION_DDOT = 0

CCSDS_OMM_VERS = 2.0
CREATION_DATE  = 
ORIGINATOR     = 

OBJECT_NAME    = STARLINK-36738
OBJECT_ID      = 2026-034R
CENTER_NAME    = EARTH
REF_FRAME      = TEME
TIME_SYSTEM    = UTC
MEAN_ELEMENT_THEORY = SGP/SGP4

EPOCH          = 2026-03-03T14:00:03.000384
MEAN_MOTION    = 15.80909067
ECCENTRICITY   = .0001215
INCLINATION    = 53.1585
RA_OF_ASC_NODE = 241.8257
ARG_OF_PERICENTER = 46.5848
MEAN_ANOMALY   = 286.6430

EPHEMERIS_TYPE = 0
CLASSIFICATION_TYPE = U
NORAD_CAT_ID   = 67865
ELEMENT_SET_NO = 999
REV_AT_EPOCH   = 288
BSTAR          = -.30574E-3
MEAN_MOTION_DOT = -.6072E-3
MEAN_MOTION_DDOT = 0

CCSDS_OMM_VERS = 2.0
CREATION_DATE  = 
ORIGINATOR     = 

OBJECT_NAME    = STARLINK-36780
OBJECT_ID      = 2026-034S
CENTER_NAME    = EARTH
REF_FRAME      = TEME
TIME_SYSTEM    = UTC
MEAN_ELEMENT_THEORY = SGP/SGP4

EPOCH          = 2026-03-03T14:00:03.000384
MEAN_MOTION    = 15.80853239
ECCENTRICITY   = .0000588
INCLINATION    = 53.1578
RA_OF_ASC_NODE = 241.8159
ARG_OF_PERICENTER = 66.1679
MEAN_ANOMALY   = 271.3259

EPHEMERIS_TYPE = 0
CLASSIFICATION_TYPE = U
NORAD_CAT_ID   = 67866
ELEMENT_SET_NO = 999
REV_AT_EPOCH   = 288
BSTAR          = .34683E-3
MEAN_MOTION_DOT = .68233E-3
MEAN_MOTION_DDOT = 0

CCSDS_OMM_VERS = 2.0
CREATION_DATE  = 
ORIGINATOR     = 

OBJECT_NAME    = STARLINK-36761
OBJECT_ID      = 2026-034T
CENTER_NAME    = EARTH
REF_FRAME      = TEME
TIME_SYSTEM    = UTC
MEAN_ELEMENT_THEORY = SGP/SGP4

EPOCH          = 2026-03-03T14:00:03.000384
MEAN_MOTION    = 15.80960222
ECCENTRICITY   = .0001051
INCLINATION    = 53.1579
RA_OF_ASC_NODE = 241.8068
ARG_OF_PERICENTER = 87.5341
MEAN_ANOMALY   = 254.2234

EPHEMERIS_TYPE = 0
CLASSIFICATION_TYPE = U
NORAD_CAT_ID   = 67867
ELEMENT_SET_NO = 999
REV_AT_EPOCH   = 288
BSTAR          = -.80777E-3
MEAN_MOTION_DOT = -.157883E-2
MEAN_MOTION_DDOT = 0

CCSDS_OMM_VERS = 2.0
CREATION_DATE  = 
ORIGINATOR     = 

OBJECT_NAME    = STARLINK-36762
OBJECT_ID      = 2026-034U
CENTER_NAME    = EARTH
REF_FRAME      = TEME
TIME_SYSTEM    = UTC
MEAN_ELEMENT_THEORY = SGP/SGP4

EPOCH          = 2026-03-03T14:00:03.000384
MEAN_MOTION    = 15.80886252
ECCENTRICITY   = .0001493
INCLINATION    = 53.1581
RA_OF_ASC_NODE = 241.7983
ARG_OF_PERICENTER = 54.2570
MEAN_ANOMALY   = 291.8016

EPHEMERIS_TYPE = 0
CLASSIFICATION_TYPE = U
NORAD_CAT_ID   = 67868
ELEMENT_SET_NO = 999
REV_AT_EPOCH   = 288
BSTAR          = -.14971E-3
MEAN_MOTION_DOT = -.30164E-3
MEAN_MOTION_DDOT = 0

CCSDS_OMM_VERS = 2.0
CREATION_DATE  = 
ORIGINATOR     = 

OBJECT_NAME    = STARLINK-36779
OBJECT_ID      = 2026-034V
CENTER_NAME    = EARTH
REF_FRAME      = TEME
TIME_SYSTEM    = UTC
MEAN_ELEMENT_THEORY = SGP/SGP4

EPOCH          = 2026-03-03T14:00:03.000384
MEAN_MOTION    = 15.80898978
ECCENTRICITY   = .0001096
INCLINATION    = 53.1582
RA_OF_ASC_NODE = 241.7892
ARG_OF_PERICENTER = 88.0651
MEAN_ANOMALY   = 262.2370

EPHEMERIS_TYPE = 0
CLASSIFICATION_TYPE = U
NORAD_CAT_ID   = 67869
ELEMENT_SET_NO = 999
REV_AT_EPOCH   = 288
BSTAR          = -.11118E-3
MEAN_MOTION_DOT = -.2261E-3
MEAN_MOTION_DDOT = 0

CCSDS_OMM_VERS = 2.0
CREATION_DATE  = 
ORIGINATOR     = 

OBJECT_NAME    = STARLINK-36770
OBJECT_ID      = 2026-034W
CENTER_NAME    = EARTH
REF_FRAME      = TEME
TIME_SYSTEM    = UTC
MEAN_ELEMENT_THEORY = SGP/SGP4

EPOCH          = 2026-03-03T14:00:03.000384
MEAN_MOTION    = 15.80929146
ECCENTRICITY   = .00011
INCLINATION    = 53.1584
RA_OF_ASC_NODE = 241.7713
ARG_OF_PERICENTER = 85.8779
MEAN_ANOMALY   = 272.9646

EPHEMERIS_TYPE = 0
CLASSIFICATION_TYPE = U
NORAD_CAT_ID   = 67870
ELEMENT_SET_NO = 999
REV_AT_EPOCH   = 288
BSTAR          = -.44838E-3
MEAN_MOTION_DOT = -.88522E-3
MEAN_MOTION_DDOT = 0

CCSDS_OMM_VERS = 2.0
CREATION_DATE  = 
ORIGINATOR     = 

OBJECT_NAME    = STARLINK-36769
OBJECT_ID      = 2026-034X
CENTER_NAME    = EARTH
REF_FRAME      = TEME
TIME_SYSTEM    = UTC
MEAN_ELEMENT_THEORY = SGP/SGP4

EPOCH          = 2026-03-03T14:00:03.000384
MEAN_MOTION    = 15.80959746
ECCENTRICITY   = .0000732
INCLINATION    = 53.1582
RA_OF_ASC_NODE = 241.7804
ARG_OF_PERICENTER = 61.7220
MEAN_ANOMALY   = 292.8356

EPHEMERIS_TYPE = 0
CLASSIFICATION_TYPE = U
NORAD_CAT_ID   = 67871
ELEMENT_SET_NO = 999
REV_AT_EPOCH   = 288
BSTAR          = -.64292E-3
MEAN_MOTION_DOT = -.126251E-2
MEAN_MOTION_DDOT = 0

CCSDS_OMM_VERS = 2.0
CREATION_DATE  = 
ORIGINATOR     = 

OBJECT_NAME    = STARLINK-36786
OBJECT_ID      = 2026-034Y
CENTER_NAME    = EARTH
REF_FRAME      = TEME
TIME_SYSTEM    = UTC
MEAN_ELEMENT_THEORY = SGP/SGP4

EPOCH          = 2026-03-03T14:00:03.000384
MEAN_MOTION    = 15.80875668
ECCENTRICITY   = .0000249
INCLINATION    = 53.1582
RA_OF_ASC_NODE = 241.7627
ARG_OF_PERICENTER = 92.7695
MEAN_ANOMALY   = 270.3780

EPHEMERIS_TYPE = 0
CLASSIFICATION_TYPE = U
NORAD_CAT_ID   = 67872
ELEMENT_SET_NO = 999
REV_AT_EPOCH   = 288
BSTAR          = .81447E-5
MEAN_MOTION_DOT = .911E-5
MEAN_MOTION_DDOT = 0

